OBJECT_NAME,OBJECT_ID,EPOCH,MEAN_MOTION,ECCENTRICITY,INCLINATION,RA_OF_ASC_NODE,ARG_OF_PERICENTER,MEAN_ANOMALY,EPHEMERIS_TYPE,CLASSIFICATION_TYPE,NORAD_CAT_ID,ELEMENT_SET_NO,REV_AT_EPOCH,BSTAR,MEAN_MOTION_DOT,MEAN_MOTION_DDOT
STARLINK-35627,2025-240AC,2026-06-26T23:56:33.078912,15.30186695,.0001038,53.1600,275.1013,94.3519,265.7600,0,U,66172,999,3872,.78674E-3,.23004E-3,0
STARLINK-35634,2025-240AD,2026-06-26T18:33:58.924224,15.34392955,.00011792,53.1582,274.4194,100.1621,259.9515,0,U,66173,999,3871,.97779525E-3,.32797E-3,0
STARLINK-35363,2025-243B,2026-06-27T01:37:13.499904,15.34410301,.0001049,53.1578,96.9464,101.9924,258.1196,0,U,66178,999,3740,.11835E-2,.39835E-3,0
STARLINK-35346,2025-243C,2026-06-27T01:09:57.019968,15.34384055,.0000927,53.1594,96.8319,88.3400,271.7709,0,U,66179,999,3740,.93586E-3,.3136E-3,0
STARLINK-35335,2025-243D,2026-06-27T04:00:03.000096,15.34349234,.0001774,53.1609,96.7823,73.9740,323.2405,0,U,66180,999,575,.13586E-2,.45731E-3,0
STARLINK-35342,2025-243E,2026-06-27T00:24:36.798048,15.34420316,.0001504,53.1592,97.3422,110.2670,249.8494,0,U,66181,999,3739,.10527E-2,.35383E-3,0
STARLINK-35333,2025-243F,2026-06-27T01:40:14.933856,15.34390453,.0000989,53.1591,96.9626,97.3120,262.7995,0,U,66182,999,3740,.12761E-2,.42973E-3,0
STARLINK-35310,2025-243G,2026-06-27T04:20:34.094688,15.34341654,.0001517,53.1596,96.2361,93.5330,266.5846,0,U,66183,999,3742,.90238E-3,.30179E-3,0
STARLINK-35317,2025-243H,2026-06-27T01:19:03.384192,15.34426498,.00013,53.1605,96.8753,76.8318,283.2830,0,U,66184,999,3740,.89409E-3,.29978E-3,0
STARLINK-35377,2025-243J,2026-06-27T01:22:04.171008,15.34394135,.0000867,53.1587,96.8882,88.7396,271.3706,0,U,66185,999,3740,.10169E-2,.34132E-3,0
STARLINK-35365,2025-243K,2026-06-27T02:07:31.065600,15.34392634,.0001133,53.1607,97.0817,98.9670,261.1461,0,U,66186,999,3740,.13526E-2,.4559E-3,0
STARLINK-35350,2025-243L,2026-06-27T04:00:03.000096,15.34362501,.0001074,53.1608,96.9683,77.0619,226.9168,0,U,66187,999,585,.16775E-2,.56662E-3,0
STARLINK-35041,2025-243M,2026-06-27T00:21:36.456192,15.34403979,.0000846,53.1597,97.3331,102.8181,257.2916,0,U,66188,999,3739,.1026E-2,.34452E-3,0
STARLINK-34694,2025-243N,2026-06-27T02:13:08.639040,15.30192844,.0001057,53.1587,97.1029,102.9410,257.1709,0,U,66189,999,3740,.10241E-2,.30088E-3,0
STARLINK-34863,2025-243P,2026-06-27T00:57:19.708416,15.30185004,.0001274,53.1593,97.4861,88.4437,271.6710,0,U,66190,999,3739,.10014E-2,.29403E-3,0
STARLINK-35061,2025-243Q,2026-06-27T02:01:27.365664,15.34395374,.0000977,53.1597,97.0544,126.3691,233.7402,0,U,66191,999,3740,.10337E-2,.34704E-3,0
STARLINK-34937,2025-243R,2026-06-27T01:34:10.789824,15.34386847,.0001,53.1594,96.9360,87.7920,272.3197,0,U,66192,999,3740,.72595E-4,.2076E-4,0
STARLINK-35197,2025-243S,2026-06-27T00:20:51.266400,15.30183154,.0001244,53.1580,97.3234,110.2076,249.9059,0,U,66193,999,3739,.5296E-3,.1535E-3,0
STARLINK-35374,2025-243T,2026-06-27T02:03:33.405120,15.31705531,.0001517,53.1584,96.3461,145.3889,214.7211,0,U,66194,999,3741,.79569E-3,.24411E-3,0
STARLINK-34813,2025-243U,2026-06-27T01:16:00.832224,15.34379895,.0001546,53.1610,96.8566,80.7676,279.3501,0,U,66195,999,3740,.537E-3,.17799E-3,0
STARLINK-35409,2025-243V,2026-06-27T04:00:03.000096,15.30164654,.0001205,53.1590,96.7233,87.7028,339.0503,0,U,66196,999,586,.14506E-2,.42803E-3,0
STARLINK-35259,2025-243W,2026-06-27T02:17:33.569952,15.30829510,.0001826,53.1602,97.1247,181.9052,178.1942,0,U,66197,999,3740,.15005E-1,.483412E-2,0
STARLINK-35518,2025-243X,2026-06-27T01:24:40.650912,15.30194859,.0001034,53.1583,97.5995,91.3088,268.8031,0,U,66198,999,3739,.92191E-3,.2704E-3,0
STARLINK-35509,2025-243Y,2026-06-27T01:53:23.167104,15.30176169,.0000846,53.1565,97.0119,105.0452,255.0642,0,U,66199,999,3740,.64498E-3,.18778E-3,0
STARLINK-35551,2025-243Z,2026-06-27T00:23:53.691360,15.30199690,.0001581,53.1582,97.3327,90.0643,270.0539,0,U,66200,999,3739,.61838E-3,.18E-3,0
STARLINK-35543,2025-243AA,2026-06-27T00:56:29.281056,15.31696281,.0001206,53.1589,96.7650,69.3882,290.7249,0,U,66201,999,3740,.7553E-3,.23143E-3,0
STARLINK-35534,2025-243AB,2026-06-27T02:07:04.101024,15.30189036,.000108,53.1586,97.0708,100.3263,259.7860,0,U,66202,999,3740,.11167E-2,.32849E-3,0
STARLINK-35548,2025-243AC,2026-06-27T04:00:03.000096,15.30147910,.000106,53.1592,96.7429,87.0174,328.1756,0,U,66203,999,586,.15599E-2,.46052E-3,0
STARLINK-35490,2025-243AD,2026-06-27T04:00:03.000096,15.34362709,.0001465,53.1602,96.6899,89.6897,353.9290,0,U,66204,999,581,.14241E-2,.4799E-3,0
STARLINK-35748,2025-244A,2026-06-27T00:19:51.341088,15.34386184,.0000934,53.1588,80.9749,97.5634,262.5475,0,U,66206,999,3841,.1174E-2,.3948E-3,0
